STARLINK-32469          
1 61721U 24196Q   25244.56445149  .00001737  00000+0  70775-4 0  9991
2 61721  53.1594 259.5938 0001273  88.4194 271.6953 15.30198478 48207
STARLINK-32438          
1 61722U 24196R   25244.34541138 -.00000074  00000+0  96396-5 0  9995
2 61722  53.1588 261.0728 0001111  86.9690 273.1438 15.30184096 48162
STARLINK-32540          
1 61723U 24196S   25244.21472658 -.00000997  00000+0 -21516-4 0  9998
2 61723  53.1590 225.6208 0001926 108.9394 251.1816 15.30205004 48647
STARLINK-32528          
1 61724U 24196T   25244.42021582 -.00000222  00000+0  46242-5 0  9992
2 61724  53.1593 260.8288 0001150  97.1029 263.0103 15.30192754 46975
STARLINK-32573          
1 61725U 24196U   25244.53184687 -.00000404  00000+0 -15209-5 0  9993
2 61725  53.1583 260.1017 0001103  74.9314 285.1809 15.30202858 48197
STARLINK-32478          
1 61726U 24196V   25244.45914761  .00001290  00000+0  55689-4 0  9996
2 61726  53.1590 260.3596 0001121  73.3995 286.7129 15.30193125 48185
STARLINK-32511          
1 61727U 24196W   25244.45281499  .00000055  00000+0  13998-4 0  9997
2 61727  53.1597 260.3195 0001328  81.3689 278.7463 15.30191947 48188
STARLINK-32475          
1 61728U 24196X   25244.44647872  .00000411  00000+0  25993-4 0  9992
2 61728  53.1596 260.2788 0001311  84.6918 275.4233 15.30192878 48181
STARLINK-32442          
1 61729U 24196Y   25244.44964579  .00001482  00000+0  62150-4 0  9994
2 61729  53.1597 260.2992 0001385  87.0976 273.0184 15.30194215 48188
STARLINK-32362          
1 61845U 24202A   25244.30542853  .00001858  00000+0  77012-4 0  9993
2 61845  43.0012 216.2965 0000733 270.6698  89.4070 15.27585726 47083
STARLINK-32472          
1 61846U 24202B   25244.60681712 -.00000285  00000+0 -82668-6 0  9995
2 61846  42.9992 215.1205 0000700 277.1336  82.9436 15.27572025 46530
STARLINK-32352          
1 61847U 24202C   25244.30029243  .00000288  00000+0  19986-4 0  9990
2 61847  43.0014 216.2589 0000614 260.5999  99.4783 15.27576468 46500
STARLINK-32427          
1 61848U 24202D   25243.92340625  .00007769  00000+0  29194-3 0  9990
2 61848  43.0019 218.5929 0000800 277.6504  82.4257 15.27534941 46437
STARLINK-32346          
1 61849U 24202E   25244.31956646  .00000379  00000+0  23284-4 0  9996
2 61849  43.0019 216.4052 0001307 277.8045  82.2658 15.27580002 46495
STARLINK-32330          
1 61850U 24202F   25244.34253412  .00003593  00000+0  14004-3 0  9992
2 61850  43.0027 226.9618 0000953 260.9649  99.1095 15.27572885 46389
STARLINK-32379          
1 61851U 24202G   25244.29643141  .00000420  00000+0  24763-4 0  9999
2 61851  43.0008 216.2274 0000853 276.2743  83.8012 15.27582182 46495
