[{"OBJECT_NAME":"STARLINK-32469","OBJECT_ID":"2024-196Q","EPOCH":"2025-09-01T13:32:48.608736","MEAN_MOTION":15.30198478,"ECCENTRICITY":0.0001273,"INCLINATION":53.1594,"RA_OF_ASC_NODE":259.5938,"ARG_OF_PERICENTER":88.4194,"MEAN_ANOMALY":271.6953,"EPHEMERIS_TYPE":0,"CLASSIFICATION_TYPE":"U","NORAD_CAT_ID":61721,"ELEMENT_SET_NO":999,"REV_AT_EPOCH":4820,"BSTAR":7.0774666e-5,"MEAN_MOTION_DOT":1.737e-5,"MEAN_MOTION_DDOT":0},{"OBJECT_NAME":"STARLINK-32438","OBJECT_ID":"2024-196R","EPOCH":"2025-09-01T08:17:23.543232","MEAN_MOTION":15.30184096,"ECCENTRICITY":0.00011111,"INCLINATION":53.1588,"RA_OF_ASC_NODE":261.0728,"ARG_OF_PERICENTER":86.969,"MEAN_ANOMALY":273.1438,"EPHEMERIS_TYPE":0,"CLASSIFICATION_TYPE":"U","NORAD_CAT_ID":61722,"ELEMENT_SET_NO":999,"REV_AT_EPOCH":4816,"BSTAR":9.639637e-6,"MEAN_MOTION_DOT":-7.4e-7,"MEAN_MOTION_DDOT":0},{"OBJECT_NAME":"STARLINK-32540","OBJECT_ID":"2024-196S","EPOCH":"2025-09-01T05:09:12.376512","MEAN_MOTION":15.30205004,"ECCENTRICITY":0.00019268,"INCLINATION":53.159,"RA_OF_ASC_NODE":225.6208,"ARG_OF_PERICENTER":108.9394,"MEAN_ANOMALY":251.1816,"EPHEMERIS_TYPE":0,"CLASSIFICATION_TYPE":"U","NORAD_CAT_ID":61723,"ELEMENT_SET_NO":999,"REV_AT_EPOCH":4864,"BSTAR":-2.1515544e-5,"MEAN_MOTION_DOT":-9.97e-6,"MEAN_MOTION_DDOT":0},{"OBJECT_NAME":"STARLINK-32528","OBJECT_ID":"2024-196T","EPOCH":"2025-09-01T10:05:06.646848","MEAN_MOTION":15.30192754,"ECCENTRICITY":0.000115,"INCLINATION":53.1593,"RA_OF_ASC_NODE":260.8288,"ARG_OF_PERICENTER":97.1029,"MEAN_ANOMALY":263.0103,"EPHEMERIS_TYPE":0,"CLASSIFICATION_TYPE":"U","NORAD_CAT_ID":61724,"ELEMENT_SET_NO":999,"REV_AT_EPOCH":4697,"BSTAR":4.624208e-6,"MEAN_MOTION_DOT":-2.22e-6,"MEAN_MOTION_DDOT":0},{"OBJECT_NAME":"STARLINK-32573","OBJECT_ID":"2024-196U","EPOCH":"2025-09-01T12:45:51.569568","MEAN_MOTION":15.30202858,"ECCENTRICITY":0.00011033,"INCLINATION":53.1583,"RA_OF_ASC_NODE":260.1017,"ARG_OF_PERICENTER":74.9314,"MEAN_ANOMALY":285.1809,"EPHEMERIS_TYPE":0,"CLASSIFICATION_TYPE":"U","NORAD_CAT_ID":61725,"ELEMENT_SET_NO":999,"REV_AT_EPOCH":4819,"BSTAR":-1.52087e-6,"MEAN_MOTION_DOT":-4.04e-6,"MEAN_MOTION_DDOT":0},{"OBJECT_NAME":"STARLINK-32478","OBJECT_ID":"2024-196V","EPOCH":"2025-09-01T11:01:10.353504","MEAN_MOTION":15.30193125,"ECCENTRICITY":0.00011218,"INCLINATION":53.159,"RA_OF_ASC_NODE":260.3596,"ARG_OF_PERICENTER":73.3995,"MEAN_ANOMALY":286.7129,"EPHEMERIS_TYPE":0,"CLASSIFICATION_TYPE":"U","NORAD_CAT_ID":61726,"ELEMENT_SET_NO":999,"REV_AT_EPOCH":4818,"BSTAR":5.5688736e-5,"MEAN_MOTION_DOT":1.29e-5,"MEAN_MOTION_DDOT":0},{"OBJECT_NAME":"STARLINK-32511","OBJECT_ID":"2024-196W","EPOCH":"2025-09-01T10:52:03.215136","MEAN_MOTION":15.30191947,"ECCENTRICITY":0.00013288,"INCLINATION":53.1597,"RA_OF_ASC_NODE":260.3195,"ARG_OF_PERICENTER":81.3689,"MEAN_ANOMALY":278.7463,"EPHEMERIS_TYPE":0,"CLASSIFICATION_TYPE":"U","NORAD_CAT_ID":61727,"ELEMENT_SET_NO":999,"REV_AT_EPOCH":4818,"BSTAR":1.3997879e-5,"MEAN_MOTION_DOT":5.5e-7,"MEAN_MOTION_DDOT":0},{"OBJECT_NAME":"STARLINK-32475","OBJECT_ID":"2024-196X","EPOCH":"2025-09-01T10:42:55.761408","MEAN_MOTION":15.30192878,"ECCENTRICITY":0.00013115,"INCLINATION":53.1596,"RA_OF_ASC_NODE":260.2788,"ARG_OF_PERICENTER":84.6918,"MEAN_ANOMALY":275.4233,"EPHEMERIS_TYPE":0,"CLASSIFICATION_TYPE":"U","NORAD_CAT_ID":61728,"ELEMENT_SET_NO":999,"REV_AT_EPOCH":4818,"BSTAR":2.5993292e-5,"MEAN_MOTION_DOT":4.11e-6,"MEAN_MOTION_DDOT":0},{"OBJECT_NAME":"STARLINK-32442","OBJECT_ID":"2024-196Y","EPOCH":"2025-09-01T10:47:29.396256","MEAN_MOTION":15.30194215,"ECCENTRICITY":0.00013858,"INCLINATION":53.1597,"RA_OF_ASC_NODE":260.2992,"ARG_OF_PERICENTER":87.0976,"MEAN_ANOMALY":273.0184,"EPHEMERIS_TYPE":0,"CLASSIFICATION_TYPE":"U","NORAD_CAT_ID":61729,"ELEMENT_SET_NO":999,"REV_AT_EPOCH":4818,"BSTAR":6.2150291e-5,"MEAN_MOTION_DOT":1.482e-5,"MEAN_MOTION_DDOT":0},{"OBJECT_NAME":"STARLINK-32362","OBJECT_ID":"2024-202A","EPOCH":"2025-09-01T07:19:49.024992","MEAN_MOTION":15.27585726,"ECCENTRICITY":7.332e-5,"INCLINATION":43.0012,"RA_OF_ASC_NODE":216.2965,"ARG_OF_PERICENTER":270.6698,"MEAN_ANOMALY":89.407,"EPHEMERIS_TYPE":0,"CLASSIFICATION_TYPE":"U","NORAD_CAT_ID":61845,"ELEMENT_SET_NO":999,"REV_AT_EPOCH":4708,"BSTAR":7.7012209e-5,"MEAN_MOTION_DOT":1.858e-5,"MEAN_MOTION_DDOT":0},{"OBJECT_NAME":"STARLINK-32472","OBJECT_ID":"2024-202B","EPOCH":"2025-09-01T14:33:48.999168","MEAN_MOTION":15.27572025,"ECCENTRICITY":7.004e-5,"INCLINATION":42.9992,"RA_OF_ASC_NODE":215.1205,"ARG_OF_PERICENTER":277.1336,"MEAN_ANOMALY":82.9436,"EPHEMERIS_TYPE":0,"CLASSIFICATION_TYPE":"U","NORAD_CAT_ID":61846,"ELEMENT_SET_NO":999,"REV_AT_EPOCH":4653,"BSTAR":-8.2668e-7,"MEAN_MOTION_DOT":-2.85e-6,"MEAN_MOTION_DDOT":0},{"OBJECT_NAME":"STARLINK-32352","OBJECT_ID":"2024-202C","EPOCH":"2025-09-01T07:12:25.265952","MEAN_MOTION":15.27576468,"ECCENTRICITY":6.149e-5,"INCLINATION":43.0014,"RA_OF_ASC_NODE":216.2589,"ARG_OF_PERICENTER":260.5999,"MEAN_ANOMALY":99.4783,"EPHEMERIS_TYPE":0,"CLASSIFICATION_TYPE":"U","NORAD_CAT_ID":61847,"ELEMENT_SET_NO":999,"REV_AT_EPOCH":4650,"BSTAR":1.9986164e-5,"MEAN_MOTION_DOT":2.88e-6,"MEAN_MOTION_DDOT":0},{"OBJECT_NAME":"STARLINK-32427","OBJECT_ID":"2024-202D","EPOCH":"2025-08-31T22:09:42.300000","MEAN_MOTION":15.27534941,"ECCENTRICITY":8.002e-5,"INCLINATION":43.0019,"RA_OF_ASC_NODE":218.5929,"ARG_OF_PERICENTER":277.6504,"MEAN_ANOMALY":82.4257,"EPHEMERIS_TYPE":0,"CLASSIFICATION_TYPE":"U","NORAD_CAT_ID":61848,"ELEMENT_SET_NO":999,"REV_AT_EPOCH":4643,"BSTAR":0.00029193725,"MEAN_MOTION_DOT":7.769e-5,"MEAN_MOTION_DDOT":0},{"OBJECT_NAME":"STARLINK-32346","OBJECT_ID":"2024-202E","EPOCH":"2025-09-01T07:40:10.542144","MEAN_MOTION":15.27580002,"ECCENTRICITY":0.00013073,"INCLINATION":43.0019,"RA_OF_ASC_NODE":216.4052,"ARG_OF_PERICENTER":277.8045,"MEAN_ANOMALY":82.2658,"EPHEMERIS_TYPE":0,"CLASSIFICATION_TYPE":"U","NORAD_CAT_ID":61849,"ELEMENT_SET_NO":999,"REV_AT_EPOCH":4649,"BSTAR":2.3284057e-5,"MEAN_MOTION_DOT":3.79e-6,"MEAN_MOTION_DDOT":0},{"OBJECT_NAME":"STARLINK-32330","OBJECT_ID":"2024-202F","EPOCH":"2025-09-01T08:13:14.947968","MEAN_MOTION":15.27572885,"ECCENTRICITY":9.531e-5,"INCLINATION":43.0027,"RA_OF_ASC_NODE":226.9618,"ARG_OF_PERICENTER":260.9649,"MEAN_ANOMALY":99.1095,"EPHEMERIS_TYPE":0,"CLASSIFICATION_TYPE":"U","NORAD_CAT_ID":61850,"ELEMENT_SET_NO":999,"REV_AT_EPOCH":4638,"BSTAR":0.00014003965,"MEAN_MOTION_DOT":3.593e-5,"MEAN_MOTION_DDOT":0},{"OBJECT_NAME":"STARLINK-32379","OBJECT_ID":"2024-202G","EPOCH":"2025-09-01T07:06:51.673824","MEAN_MOTION":15.27582182,"ECCENTRICITY":8.531e-5,"INCLINATION":43.0008,"RA_OF_ASC_NODE":216.2274,"ARG_OF_PERICENTER":276.2743,"MEAN_ANOMALY":83.8012,"EPHEMERIS_TYPE":0,"CLASSIFICATION_TYPE":"U","NORAD_CAT_ID":61851,"ELEMENT_SET_NO":999,"REV_AT_EPOCH":4649,"BSTAR":2.4762947e-5,"MEAN_MOTION_DOT":4.2e-6,"MEAN_MOTION_DDOT":0}]
